ONEWEB-0527             
1 54642U 22166A   23059.25001157 -.01075360  00000+0 -74774+0 0  9999
2 54642  87.1679 125.8759 0007275 340.6946  51.4396 14.02335830 12629
ONEWEB-0527             
1 54642U 22166A   23059.58334491 -.00993117  00000+0 -69683+0 0  9996
2 54642  87.1740 125.7714 0007073 340.5401 292.9048 14.01556794  1301
ONEWEB-0527             
1 54642U 22166A   23059.91667824 -.01053752  00000+0 -75134+0 0  9993
2 54642  87.1802 125.6685 0007133 340.9352 172.9237 14.00854325 12716
ONEWEB-0527             
1 54642U 22166A   23060.58334491 -.00994557  00000+0 -72479+0 0  9994
2 54642  87.1927 125.4615 0006954 339.2226 292.8727 13.99427655 12812
ONEWEB-0527             
1 54642U 22166A   23060.91667824 -.01051746  00000+0 -77870+0 0  9995
2 54642  87.1988 125.3597 0007009 339.3974 170.5569 13.98720723 12851
ONEWEB-0527             
1 54642U 22166A   23061.00001157 -.01001794  00000+0 -74229+0 0  9990
2 54642  87.2006 125.3341 0006900 338.7545 230.5358 13.98512209  1305
ONEWEB-0527             
1 54642U 22166A   23061.83334491 -.01086356  00000+0 -83467+0 0  9992
2 54642  87.2161 125.0793 0007111 335.1761 104.3772 13.96731257  1303
ONEWEB-0527             
1 54642U 22166A   23062.41667824 -.01051150  00000+0 -82455+0 0  9996
2 54642  87.2271 124.9015 0007078 332.7997 156.7014 13.95431200 13066
ONEWEB-0527             
1 54642U 22166A   23062.58334491 -.00997460  00000+0 -78534+0 0  9990
2 54642  87.2303 124.8510 0006877 331.7414 274.3962 13.95042528  1304
ONEWEB-0527             
1 54642U 22166A   23062.91667824 -.01048198  00000+0 -83803+0 0  9997
2 54642  87.2362 124.7515 0006981 331.3122 147.4326 13.94332592  1307
